{"type":"FeatureCollection","features":[{"type":"Feature","properties":{"province":"NU"},"geometry":null},{"type":"Feature","properties":{"province":"NU"},"geometry":null},{"type":"Feature","properties":{"province":"NU"},"geometry":null},{"type":"Feature","properties":{"province":"NU"},"geometry":null},{"type":"Feature","properties":{"province":"NU"},"geometry":null},{"type":"Feature","properties":{"province":"NU"},"geometry":null},{"type":"Feature","properties":{"province":"NU"},"geometry":null},{"type":"Feature","properties":{"province":"NU"},"geometry":null},{"type":"Feature","properties":{"province":"NU"},"geometry":null},{"type":"Feature","properties":{"province":"NU"},"geometry":null},{"type":"Feature","properties":{"province":"NU"},"geometry":null},{"type":"Feature","properties":{"province":"NU"},"geometry":null},{"type":"Feature","properties":{"province":"NU"},"geometry":null},{"type":"Feature","properties":{"province":"NT"},"geometry":null},{"type":"Feature","properties":{"province":"NU"},"geometry":null},{"type":"Feature","properties":{"province":"NU"},"geometry":null},{"type":"Feature","properties":{"province":"NU"},"geometry":null},{"type":"Feature","properties":{"province":"NU"},"geometry":null},{"type":"Feature","properties":{"province":"NU"},"geometry":null},{"type":"Feature","properties":{"province":"NU"},"geometry":null},{"type":"Feature","properties":{"province":"NT"},"geometry":null},{"type":"Feature","properties":{"province":"NU"},"geometry":null},{"type":"Feature","properties":{"province":"NT"},"geometry":null},{"type":"Feature","properties":{"province":"NU"},"geometry":null},{"type":"Feature","properties":{"province":"NU"},"geometry":null},{"type":"Feature","properties":{"province":"NU"},"geometry":null},{"type":"Feature","properties":{"province":"NU"},"geometry":null},{"type":"Feature","properties":{"province":"NU"},"geometry":null},{"type":"Feature","properties":{"province":"NU"},"geometry":null},{"type":"Feature","properties":{"province":"NT"},"geometry":null},{"type":"Feature","properties":{"province":"NU"},"geometry":null},{"type":"Feature","properties":{"province":"NU"},"geometry":null},{"type":"Feature","properties":{"province":"NU"},"geometry":null},{"type":"Feature","properties":{"province":"NT"},"geometry":null},{"type":"Feature","properties":{"province":"NT"},"geometry":null},{"type":"Feature","properties":{"province":"NU"},"geometry":null},{"type":"Feature","properties":{"province":"NU"},"geometry":null},{"type":"Feature","properties":{"province":"NU"},"geometry":null},{"type":"Feature","properties":{"province":"NU"},"geometry":null},{"type":"Feature","properties":{"province":"NU"},"geometry":null},{"type":"Feature","properties":{"province":"NT"},"geometry":null},{"type":"Feature","properties":{"province":"NU"},"geometry":null},{"type":"Feature","properties":{"province":"NU"},"geometry":null},{"type":"Feature","properties":{"province":"NU"},"geometry":null},{"type":"Feature","properties":{"province":"NU"},"geometry":null},{"type":"Feature","properties":{"province":"NT"},"geometry":null},{"type":"Feature","properties":{"province":"NU"},"geometry":null},{"type":"Feature","properties":{"province":"NU"},"geometry":null},{"type":"Feature","properties":{"province":"NU"},"geometry":null},{"type":"Feature","properties":{"province":"NU"},"geometry":null},{"type":"Feature","properties":{"province":"NU"},"geometry":null},{"type":"Feature","properties":{"province":"NU"},"geometry":null},{"type":"Feature","properties":{"province":"NU"},"geometry":null},{"type":"Feature","properties":{"province":"NT"},"geometry":null},{"type":"Feature","properties":{"province":"NU"},"geometry":null},{"type":"Feature","properties":{"province":"NT"},"geometry":null},{"type":"Feature","properties":{"province":"NU"},"geometry":null},{"type":"Feature","properties":{"province":"NU"},"geometry":null},{"type":"Feature","properties":{"province":"NU"},"geometry":null},{"type":"Feature","properties":{"province":"NT"},"geometry":null},{"type":"Feature","properties":{"province":"NU"},"geometry":null},{"type":"Feature","properties":{"province":"NU"},"geometry":null},{"type":"Feature","properties":{"province":"NT"},"geometry":null},{"type":"Feature","properties":{"province":"NU"},"geometry":null},{"type":"Feature","properties":{"province":"NU"},"geometry":null},{"type":"Feature","properties":{"province":"NU"},"geometry":null},{"type":"Feature","properties":{"province":"NT"},"geometry":null},{"type":"Feature","properties":{"province":"NT"},"geometry":null},{"type":"Feature","properties":{"province":"NT"},"geometry":null},{"type":"Feature","properties":{"province":"NU"},"geometry":null},{"type":"Feature","properties":{"province":"NU"},"geometry":null},{"type":"Feature","properties":{"province":"NU"},"geometry":null},{"type":"Feature","properties":{"province":"NU"},"geometry":null},{"type":"Feature","properties":{"province":"NU"},"geometry":null},{"type":"Feature","properties":{"province":"NU"},"geometry":null},{"type":"Feature","properties":{"province":"NU"},"geometry":null},{"type":"Feature","properties":{"province":"NU"},"geometry":null},{"type":"Feature","properties":{"province":"NU"},"geometry":null},{"type":"Feature","properties":{"province":"NU"},"geometry":null},{"type":"Feature","properties":{"province":"NU"},"geometry":null},{"type":"Feature","properties":{"province":"NU"},"geometry":null},{"type":"Feature","properties":{"province":"NU"},"geometry":null},{"type":"Feature","properties":{"province":"NU"},"geometry":null},{"type":"Feature","properties":{"province":"NU"},"geometry":null},{"type":"Feature","properties":{"province":"NT"},"geometry":null},{"type":"Feature","properties":{"province":"NU"},"geometry":null},{"type":"Feature","properties":{"province":"NU"},"geometry":null},{"type":"Feature","properties":{"province":"NU"},"geometry":null},{"type":"Feature","properties":{"province":"NU"},"geometry":null},{"type":"Feature","properties":{"province":"NU"},"geometry":null},{"type":"Feature","properties":{"province":"NT"},"geometry":null},{"type":"Feature","properties":{"province":"NU"},"geometry":null},{"type":"Feature","properties":{"province":"NU"},"geometry":null},{"type":"Feature","properties":{"province":"NU"},"geometry":null},{"type":"Feature","properties":{"province":"NT"},"geometry":null},{"type":"Feature","properties":{"province":"NT"},"geometry":null},{"type":"Feature","properties":{"province":"NU"},"geometry":null},{"type":"Feature","properties":{"province":"NT"},"geometry":null},{"type":"Feature","properties":{"province":"NU"},"geometry":null},{"type":"Feature","properties":{"province":"NU"},"geometry":null},{"type":"Feature","properties":{"province":"NU"},"geometry":null},{"type":"Feature","properties":{"province":"NU"},"geometry":null},{"type":"Feature","properties":{"province":"NU"},"geometry":null},{"type":"Feature","properties":{"province":"NT"},"geometry":null},{"type":"Feature","properties":{"province":"NU"},"geometry":null},{"type":"Feature","properties":{"province":"NU"},"geometry":null},{"type":"Feature","properties":{"province":"NU"},"geometry":null},{"type":"Feature","properties":{"province":"NT"},"geometry":null},{"type":"Feature","properties":{"province":"NU"},"geometry":null},{"type":"Feature","properties":{"province":"NT"},"geometry":null},{"type":"Feature","properties":{"province":"NT"},"geometry":null},{"type":"Feature","properties":{"province":"NU"},"geometry":null},{"type":"Feature","properties":{"province":"NU"},"geometry":null},{"type":"Feature","properties":{"province":"NU"},"geometry":null},{"type":"Feature","properties":{"province":"NU"},"geometry":null},{"type":"Feature","properties":{"province":"NU"},"geometry":null},{"type":"Feature","properties":{"province":"NU"},"geometry":null},{"type":"Feature","properties":{"province":"NU"},"geometry":null},{"type":"Feature","properties":{"province":"NU"},"geometry":null},{"type":"Feature","properties":{"province":"NU"},"geometry":null},{"type":"Feature","properties":{"province":"NU"},"geometry":null},{"type":"Feature","properties":{"province":"NU"},"geometry":null},{"type":"Feature","properties":{"province":"NU"},"geometry":null},{"type":"Feature","properties":{"province":"NU"},"geometry":null},{"type":"Feature","properties":{"province":"NU"},"geometry":null},{"type":"Feature","properties":{"province":"NU"},"geometry":null},{"type":"Feature","properties":{"province":"NU"},"geometry":null},{"type":"Feature","properties":{"province":"NU"},"geometry":null},{"type":"Feature","properties":{"province":"NU"},"geometry":null},{"type":"Feature","properties":{"province":"NU"},"geometry":null},{"type":"Feature","properties":{"province":"NU"},"geometry":null},{"type":"Feature","properties":{"province":"NU"},"geometry":null},{"type":"Feature","properties":{"province":"NU"},"geometry":null},{"type":"Feature","properties":{"province":"NT"},"geometry":null},{"type":"Feature","properties":{"province":"NT"},"geometry":null},{"type":"Feature","properties":{"province":"NT"},"geometry":null},{"type":"Feature","properties":{"province":"NU"},"geometry":null},{"type":"Feature","properties":{"province":"NT"},"geometry":null},{"type":"Feature","properties":{"province":"NT"},"geometry":null},{"type":"Feature","properties":{"province":"NT"},"geometry":null},{"type":"Feature","properties":{"province":"NU"},"geometry":null},{"type":"Feature","properties":{"province":"NT"},"geometry":null},{"type":"Feature","properties":{"province":"NU"},"geometry":null},{"type":"Feature","properties":{"province":"NT"},"geometry":null},{"type":"Feature","properties":{"province":"NT"},"geometry":null},{"type":"Feature","properties":{"province":"NU"},"geometry":null},{"type":"Feature","properties":{"province":"NU"},"geometry":null},{"type":"Feature","properties":{"province":"NT"},"geometry":null},{"type":"Feature","properties":{"province":"NU"},"geometry":null},{"type":"Feature","properties":{"province":"NU"},"geometry":null},{"type":"Feature","properties":{"province":"NU"},"geometry":null},{"type":"Feature","properties":{"province":"NU"},"geometry":null},{"type":"Feature","properties":{"province":"NU"},"geometry":null},{"type":"Feature","properties":{"province":"NU"},"geometry":null},{"type":"Feature","properties":{"province":"NU"},"geometry":null},{"type":"Feature","properties":{"province":"NU"},"geometry":null},{"type":"Feature","properties":{"province":"NU"},"geometry":null},{"type":"Feature","properties":{"province":"NU"},"geometry":null},{"type":"Feature","properties":{"province":"NU"},"geometry":null},{"type":"Feature","properties":{"province":"NU"},"geometry":null},{"type":"Feature","properties":{"province":"NT"},"geometry":null},{"type":"Feature","properties":{"province":"NU"},"geometry":null},{"type":"Feature","properties":{"province":"NU"},"geometry":null},{"type":"Feature","properties":{"province":"NU"},"geometry":null},{"type":"Feature","properties":{"province":"NU"},"geometry":null},{"type":"Feature","properties":{"province":"NT"},"geometry":null},{"type":"Feature","properties":{"province":"NU"},"geometry":null},{"type":"Feature","properties":{"province":"YT"},"geometry":null},{"type":"Feature","properties":{"province":"NU"},"geometry":null},{"type":"Feature","properties":{"province":"YT"},"geometry":null},{"type":"Feature","properties":{"province":"NT"},"geometry":null},{"type":"Feature","properties":{"province":"NT"},"geometry":null},{"type":"Feature","properties":{"province":"NU"},"geometry":null},{"type":"Feature","properties":{"province":"NT"},"geometry":null},{"type":"Feature","properties":{"province":"NT"},"geometry":null},{"type":"Feature","properties":{"province":"NU"},"geometry":null},{"type":"Feature","properties":{"province":"NU"},"geometry":null},{"type":"Feature","properties":{"province":"NU"},"geometry":null},{"type":"Feature","properties":{"province":"NU"},"geometry":null},{"type":"Feature","properties":{"province":"NU"},"geometry":null},{"type":"Feature","properties":{"province":"NU"},"geometry":null},{"type":"Feature","properties":{"province":"NT"},"geometry":null},{"type":"Feature","properties":{"province":"NU"},"geometry":null},{"type":"Feature","properties":{"province":"NT"},"geometry":null},{"type":"Feature","properties":{"province":"NU"},"geometry":null},{"type":"Feature","properties":{"province":"NU"},"geometry":null},{"type":"Feature","properties":{"province":"NU"},"geometry":null},{"type":"Feature","properties":{"province":"NU"},"geometry":null},{"type":"Feature","properties":{"province":"NU"},"geometry":null},{"type":"Feature","properties":{"province":"NT"},"geometry":null},{"type":"Feature","properties":{"province":"NU"},"geometry":null},{"type":"Feature","properties":{"province":"NU"},"geometry":null},{"type":"Feature","properties":{"province":"NU"},"geometry":null},{"type":"Feature","properties":{"province":"NU"},"geometry":null},{"type":"Feature","properties":{"province":"NU"},"geometry":null},{"type":"Feature","properties":{"province":"NT"},"geometry":null},{"type":"Feature","properties":{"province":"NU"},"geometry":null},{"type":"Feature","properties":{"province":"NU"},"geometry":null},{"type":"Feature","properties":{"province":"NU"},"geometry":null},{"type":"Feature","properties":{"province":"NU"},"geometry":null},{"type":"Feature","properties":{"province":"NT"},"geometry":null},{"type":"Feature","properties":{"province":"NU"},"geometry":null},{"type":"Feature","properties":{"province":"NU"},"geometry":null},{"type":"Feature","properties":{"province":"NU"},"geometry":null},{"type":"Feature","properties":{"province":"NU"},"geometry":null},{"type":"Feature","properties":{"province":"NT"},"geometry":null},{"type":"Feature","properties":{"province":"NU"},"geometry":null},{"type":"Feature","properties":{"province":"NU"},"geometry":null},{"type":"Feature","properties":{"province":"NU"},"geometry":null},{"type":"Feature","properties":{"province":"NU"},"geometry":null},{"type":"Feature","properties":{"province":"NU"},"geometry":null},{"type":"Feature","properties":{"province":"NU"},"geometry":null},{"type":"Feature","properties":{"province":"NU"},"geometry":null},{"type":"Feature","properties":{"province":"NU"},"geometry":null},{"type":"Feature","properties":{"province":"NU"},"geometry":null},{"type":"Feature","properties":{"province":"NU"},"geometry":null},{"type":"Feature","properties":{"province":"NU"},"geometry":null},{"type":"Feature","properties":{"province":"NU"},"geometry":null},{"type":"Feature","properties":{"province":"NU"},"geometry":null},{"type":"Feature","properties":{"province":"NU"},"geometry":null},{"type":"Feature","properties":{"province":"NU"},"geometry":null},{"type":"Feature","properties":{"province":"NU"},"geometry":null},{"type":"Feature","properties":{"province":"NU"},"geometry":null},{"type":"Feature","properties":{"province":"NU"},"geometry":null},{"type":"Feature","properties":{"province":"NU"},"geometry":null},{"type":"Feature","properties":{"province":"NU"},"geometry":null},{"type":"Feature","properties":{"province":"NU"},"geometry":null},{"type":"Feature","properties":{"province":"NU"},"geometry":null},{"type":"Feature","properties":{"province":"NU"},"geometry":null},{"type":"Feature","properties":{"province":"NU"},"geometry":null},{"type":"Feature","properties":{"province":"NU"},"geometry":null},{"type":"Feature","properties":{"province":"NU"},"geometry":null},{"type":"Feature","properties":{"province":"NU"},"geometry":null},{"type":"Feature","properties":{"province":"NU"},"geometry":null},{"type":"Feature","properties":{"province":"NU"},"geometry":null},{"type":"Feature","properties":{"province":"NU"},"geometry":null},{"type":"Feature","properties":{"province":"NU"},"geometry":null},{"type":"Feature","properties":{"province":"NU"},"geometry":null},{"type":"Feature","properties":{"province":"NU"},"geometry":null},{"type":"Feature","properties":{"province":"NU"},"geometry":null},{"type":"Feature","properties":{"province":"NU"},"geometry":null},{"type":"Feature","properties":{"province":"NU"},"geometry":null},{"type":"Feature","properties":{"province":"NU"},"geometry":null},{"type":"Feature","properties":{"province":"NU"},"geometry":null},{"type":"Feature","properties":{"province":"NU"},"geometry":null},{"type":"Feature","properties":{"province":"NU"},"geometry":null},{"type":"Feature","properties":{"province":"NU"},"geometry":null},{"type":"Feature","properties":{"province":"NU"},"geometry":null},{"type":"Feature","properties":{"province":"NU"},"geometry":null},{"type":"Feature","properties":{"province":"NU"},"geometry":null},{"type":"Feature","properties":{"province":"NU"},"geometry":null},{"type":"Feature","properties":{"province":"NU"},"geometry":null},{"type":"Feature","properties":{"province":"NU"},"geometry":null},{"type":"Feature","properties":{"province":"NU"},"geometry":null},{"type":"Feature","properties":{"province":"NU"},"geometry":null},{"type":"Feature","properties":{"province":"NU"},"geometry":null},{"type":"Feature","properties":{"province":"NU"},"geometry":null},{"type":"Feature","properties":{"province":"NU"},"geometry":null},{"type":"Feature","properties":{"province":"NU"},"geometry":null},{"type":"Feature","properties":{"province":"NU"},"geometry":null},{"type":"Feature","properties":{"province":"NU"},"geometry":null},{"type":"Feature","properties":{"province":"NU"},"geometry":null},{"type":"Feature","properties":{"province":"NU"},"geometry":null},{"type":"Feature","properties":{"province":"NU"},"geometry":null},{"type":"Feature","properties":{"province":"NU"},"geometry":null},{"type":"Feature","properties":{"province":"NU"},"geometry":null},{"type":"Feature","properties":{"province":"NU"},"geometry":null},{"type":"Feature","properties":{"province":"NU"},"geometry":null},{"type":"Feature","properties":{"province":"NU"},"geometry":null},{"type":"Feature","properties":{"province":"NU"},"geometry":null},{"type":"Feature","properties":{"province":"NU"},"geometry":null},{"type":"Feature","properties":{"province":"NU"},"geometry":null},{"type":"Feature","properties":{"province":"NU"},"geometry":null},{"type":"Feature","properties":{"province":"NU"},"geometry":null},{"type":"Feature","properties":{"province":"NU"},"geometry":null},{"type":"Feature","properties":{"province":"NU"},"geometry":null},{"type":"Feature","properties":{"province":"NU"},"geometry":null},{"type":"Feature","properties":{"province":"NU"},"geometry":null},{"type":"Feature","properties":{"province":"NU"},"geometry":null},{"type":"Feature","properties":{"province":"NU"},"geometry":null},{"type":"Feature","properties":{"province":"NU"},"geometry":null},{"type":"Feature","properties":{"province":"NU"},"geometry":null},{"type":"Feature","properties":{"province":"NU"},"geometry":null},{"type":"Feature","properties":{"province":"NU"},"geometry":null},{"type":"Feature","properties":{"province":"NU"},"geometry":null},{"type":"Feature","properties":{"province":"NU"},"geometry":null},{"type":"Feature","properties":{"province":"NU"},"geometry":null},{"type":"Feature","properties":{"province":"NU"},"geometry":null},{"type":"Feature","properties":{"province":"NU"},"geometry":null},{"type":"Feature","properties":{"province":"NU"},"geometry":null},{"type":"Feature","properties":{"province":"NU"},"geometry":null},{"type":"Feature","properties":{"province":"NU"},"geometry":null},{"type":"Feature","properties":{"province":"NU"},"geometry":null},{"type":"Feature","properties":{"province":"NU"},"geometry":null},{"type":"Feature","properties":{"province":"NU"},"geometry":null},{"type":"Feature","properties":{"province":"NU"},"geometry":null},{"type":"Feature","properties":{"province":"NU"},"geometry":null},{"type":"Feature","properties":{"province":"NU"},"geometry":null},{"type":"Feature","properties":{"province":"NU"},"geometry":null},{"type":"Feature","properties":{"province":"NU"},"geometry":null},{"type":"Feature","properties":{"province":"NU"},"geometry":null},{"type":"Feature","properties":{"province":"NU"},"geometry":null},{"type":"Feature","properties":{"province":"NU"},"geometry":null},{"type":"Feature","properties":{"province":"NU"},"geometry":null},{"type":"Feature","properties":{"province":"NU"},"geometry":null},{"type":"Feature","properties":{"province":"NU"},"geometry":null},{"type":"Feature","properties":{"province":"NU"},"geometry":null},{"type":"Feature","properties":{"province":"NU"},"geometry":null},{"type":"Feature","properties":{"province":"NU"},"geometry":null},{"type":"Feature","properties":{"province":"NU"},"geometry":null},{"type":"Feature","properties":{"province":"NU"},"geometry":null},{"type":"Feature","properties":{"province":"NU"},"geometry":null},{"type":"Feature","properties":{"province":"NU"},"geometry":null},{"type":"Feature","properties":{"province":"NU"},"geometry":null},{"type":"Feature","properties":{"province":"NU"},"geometry":null},{"type":"Feature","properties":{"province":"NU"},"geometry":null},{"type":"Feature","properties":{"province":"NU"},"geometry":null},{"type":"Feature","properties":{"province":"NU"},"geometry":null},{"type":"Feature","properties":{"province":"NU"},"geometry":null},{"type":"Feature","properties":{"province":"NU"},"geometry":null},{"type":"Feature","properties":{"province":"NU"},"geometry":null},{"type":"Feature","properties":{"province":"NU"},"geometry":null},{"type":"Feature","properties":{"province":"NU"},"geometry":null},{"type":"Feature","properties":{"province":"NU"},"geometry":null},{"type":"Feature","properties":{"province":"NU"},"geometry":null},{"type":"Feature","properties":{"province":"NU"},"geometry":null},{"type":"Feature","properties":{"province":"NU"},"geometry":null},{"type":"Feature","properties":{"province":"NU"},"geometry":null},{"type":"Feature","properties":{"province":"NU"},"geometry":null},{"type":"Feature","properties":{"province":"NU"},"geometry":null},{"type":"Feature","properties":{"province":"NU"},"geometry":null},{"type":"Feature","properties":{"province":"NU"},"geometry":null},{"type":"Feature","properties":{"province":"NU"},"geometry":null},{"type":"Feature","properties":{"province":"NU"},"geometry":null},{"type":"Feature","properties":{"province":"NU"},"geometry":null},{"type":"Feature","properties":{"province":"NU"},"geometry":null},{"type":"Feature","properties":{"province":"NU"},"geometry":null},{"type":"Feature","properties":{"province":"NU"},"geometry":null},{"type":"Feature","properties":{"province":"NU"},"geometry":null},{"type":"Feature","properties":{"province":"NU"},"geometry":null},{"type":"Feature","properties":{"province":"NU"},"geometry":null},{"type":"Feature","properties":{"province":"NU"},"geometry":null},{"type":"Feature","properties":{"province":"NU"},"geometry":null},{"type":"Feature","properties":{"province":"NU"},"geometry":null},{"type":"Feature","properties":{"province":"NU"},"geometry":null},{"type":"Feature","properties":{"province":"NU"},"geometry":null},{"type":"Feature","properties":{"province":"NU"},"geometry":null},{"type":"Feature","properties":{"province":"NU"},"geometry":null},{"type":"Feature","properties":{"province":"NU"},"geometry":null},{"type":"Feature","properties":{"province":"NU"},"geometry":null},{"type":"Feature","properties":{"province":"NU"},"geometry":null},{"type":"Feature","properties":{"province":"NU"},"geometry":null},{"type":"Feature","properties":{"province":"NU"},"geometry":null},{"type":"Feature","properties":{"province":"NU"},"geometry":null},{"type":"Feature","properties":{"province":"NU"},"geometry":null},{"type":"Feature","properties":{"province":"NU"},"geometry":null},{"type":"Feature","properties":{"province":"NU"},"geometry":null},{"type":"Feature","properties":{"province":"NU"},"geometry":null},{"type":"Feature","properties":{"province":"NU"},"geometry":null},{"type":"Feature","properties":{"province":"NU"},"geometry":null},{"type":"Feature","properties":{"province":"NU"},"geometry":null},{"type":"Feature","properties":{"province":"NU"},"geometry":null},{"type":"Feature","properties":{"province":"NU"},"geometry":null},{"type":"Feature","properties":{"province":"NU"},"geometry":null},{"type":"Feature","properties":{"province":"NU"},"geometry":null},{"type":"Feature","properties":{"province":"NU"},"geometry":null},{"type":"Feature","properties":{"province":"NU"},"geometry":null},{"type":"Feature","properties":{"province":"NU"},"geometry":null},{"type":"Feature","properties":{"province":"NU"},"geometry":null},{"type":"Feature","properties":{"province":"NU"},"geometry":null},{"type":"Feature","properties":{"province":"NU"},"geometry":null},{"type":"Feature","properties":{"province":"NU"},"geometry":null},{"type":"Feature","properties":{"province":"NU"},"geometry":null},{"type":"Feature","properties":{"province":"NU"},"geometry":null},{"type":"Feature","properties":{"province":"NU"},"geometry":null},{"type":"Feature","properties":{"province":"NU"},"geometry":null},{"type":"Feature","properties":{"province":"NU"},"geometry":null},{"type":"Feature","properties":{"province":"NU"},"geometry":null},{"type":"Feature","properties":{"province":"NU"},"geometry":null},{"type":"Feature","properties":{"province":"NU"},"geometry":null},{"type":"Feature","properties":{"province":"NU"},"geometry":null},{"type":"Feature","properties":{"province":"NU"},"geometry":null},{"type":"Feature","properties":{"province":"NU"},"geometry":null},{"type":"Feature","properties":{"province":"NU"},"geometry":null},{"type":"Feature","properties":{"province":"NU"},"geometry":null},{"type":"Feature","properties":{"province":"NU"},"geometry":null},{"type":"Feature","properties":{"province":"NU"},"geometry":null},{"type":"Feature","properties":{"province":"NU"},"geometry":null},{"type":"Feature","properties":{"province":"QC"},"geometry":null},{"type":"Feature","properties":{"province":"NU"},"geometry":null},{"type":"Feature","properties":{"province":"NU"},"geometry":null},{"type":"Feature","properties":{"province":"NU"},"geometry":null},{"type":"Feature","properties":{"province":"NU"},"geometry":null},{"type":"Feature","properties":{"province":"NU"},"geometry":null},{"type":"Feature","properties":{"province":"NU"},"geometry":null},{"type":"Feature","properties":{"province":"NU"},"geometry":null},{"type":"Feature","properties":{"province":"NU"},"geometry":null},{"type":"Feature","properties":{"province":"NU"},"geometry":null},{"type":"Feature","properties":{"province":"NU"},"geometry":null},{"type":"Feature","properties":{"province":"NU"},"geometry":null},{"type":"Feature","properties":{"province":"NU"},"geometry":null},{"type":"Feature","properties":{"province":"NU"},"geometry":null},{"type":"Feature","properties":{"province":"NU"},"geometry":null},{"type":"Feature","properties":{"province":"NU"},"geometry":null},{"type":"Feature","properties":{"province":"NU"},"geometry":null},{"type":"Feature","properties":{"province":"NU"},"geometry":null},{"type":"Feature","properties":{"province":"NU"},"geometry":null},{"type":"Feature","properties":{"province":"NU"},"geometry":null},{"type":"Feature","properties":{"province":"NU"},"geometry":null},{"type":"Feature","properties":{"province":"NU"},"geometry":null},{"type":"Feature","properties":{"province":"NU"},"geometry":null},{"type":"Feature","properties":{"province":"NU"},"geometry":null},{"type":"Feature","properties":{"province":"NL"},"geometry":null},{"type":"Feature","properties":{"province":"NL"},"geometry":null},{"type":"Feature","properties":{"province":"NU"},"geometry":null},{"type":"Feature","properties":{"province":"NL"},"geometry":null},{"type":"Feature","properties":{"province":"BC"},"geometry":null},{"type":"Feature","properties":{"province":"AB"},"geometry":null},{"type":"Feature","properties":{"province":"SK"},"geometry":null},{"type":"Feature","properties":{"province":"MB"},"geometry":null},{"type":"Feature","properties":{"province":"NU"},"geometry":null},{"type":"Feature","properties":{"province":"NL"},"geometry":null},{"type":"Feature","properties":{"province":"NU"},"geometry":null},{"type":"Feature","properties":{"province":"NU"},"geometry":null},{"type":"Feature","properties":{"province":"NU"},"geometry":null},{"type":"Feature","properties":{"province":"NU"},"geometry":null},{"type":"Feature","properties":{"province":"NU"},"geometry":null},{"type":"Feature","properties":{"province":"NU"},"geometry":null},{"type":"Feature","properties":{"province":"NU"},"geometry":null},{"type":"Feature","properties":{"province":"NU"},"geometry":null},{"type":"Feature","properties":{"province":"NU"},"geometry":null},{"type":"Feature","properties":{"province":"NU"},"geometry":null},{"type":"Feature","properties":{"province":"NU"},"geometry":null},{"type":"Feature","properties":{"province":"NU"},"geometry":null},{"type":"Feature","properties":{"province":"NU"},"geometry":null},{"type":"Feature","properties":{"province":"NL"},"geometry":null},{"type":"Feature","properties":{"province":"NL"},"geometry":null},{"type":"Feature","properties":{"province":"NU"},"geometry":null},{"type":"Feature","properties":{"province":"NU"},"geometry":null},{"type":"Feature","properties":{"province":"NU"},"geometry":null},{"type":"Feature","properties":{"province":"NL"},"geometry":null},{"type":"Feature","properties":{"province":"NL"},"geometry":null},{"type":"Feature","properties":{"province":"NL"},"geometry":null},{"type":"Feature","properties":{"province":"NL"},"geometry":null},{"type":"Feature","properties":{"province":"NU"},"geometry":null},{"type":"Feature","properties":{"province":"NU"},"geometry":null},{"type":"Feature","properties":{"province":"NL"},"geometry":null},{"type":"Feature","properties":{"province":"NL"},"geometry":null},{"type":"Feature","properties":{"province":"NL"},"geometry":null},{"type":"Feature","properties":{"province":"NU"},"geometry":null},{"type":"Feature","properties":{"province":"NU"},"geometry":null},{"type":"Feature","properties":{"province":"NL"},"geometry":null},{"type":"Feature","properties":{"province":"NU"},"geometry":null},{"type":"Feature","properties":{"province":"NL"},"geometry":null},{"type":"Feature","properties":{"province":"NU"},"geometry":null},{"type":"Feature","properties":{"province":"NU"},"geometry":null},{"type":"Feature","properties":{"province":"NU"},"geometry":null},{"type":"Feature","properties":{"province":"NU"},"geometry":null},{"type":"Feature","properties":{"province":"NU"},"geometry":null},{"type":"Feature","properties":{"province":"NL"},"geometry":null},{"type":"Feature","properties":{"province":"ON"},"geometry":null},{"type":"Feature","properties":{"province":"NL"},"geometry":null},{"type":"Feature","properties":{"province":"NU"},"geometry":null},{"type":"Feature","properties":{"province":"NU"},"geometry":null},{"type":"Feature","properties":{"province":"NU"},"geometry":null},{"type":"Feature","properties":{"province":"NL"},"geometry":null},{"type":"Feature","properties":{"province":"NU"},"geometry":null},{"type":"Feature","properties":{"province":"NU"},"geometry":null},{"type":"Feature","properties":{"province":"NU"},"geometry":null},{"type":"Feature","properties":{"province":"NL"},"geometry":null},{"type":"Feature","properties":{"province":"NU"},"geometry":null},{"type":"Feature","properties":{"province":"NU"},"geometry":null},{"type":"Feature","properties":{"province":"NU"},"geometry":null},{"type":"Feature","properties":{"province":"NU"},"geometry":null},{"type":"Feature","properties":{"province":"NL"},"geometry":null},{"type":"Feature","properties":{"province":"NU"},"geometry":null},{"type":"Feature","properties":{"province":"NU"},"geometry":null},{"type":"Feature","properties":{"province":"NL"},"geometry":null},{"type":"Feature","properties":{"province":"NU"},"geometry":null},{"type":"Feature","properties":{"province":"NU"},"geometry":null},{"type":"Feature","properties":{"province":"NU"},"geometry":null},{"type":"Feature","properties":{"province":"NU"},"geometry":null},{"type":"Feature","properties":{"province":"NL"},"geometry":null},{"type":"Feature","properties":{"province":"NU"},"geometry":null},{"type":"Feature","properties":{"province":"NL"},"geometry":null},{"type":"Feature","properties":{"province":"NU"},"geometry":null},{"type":"Feature","properties":{"province":"NU"},"geometry":null},{"type":"Feature","properties":{"province":"ON"},"geometry":null},{"type":"Feature","properties":{"province":"NL"},"geometry":null},{"type":"Feature","properties":{"province":"NL"},"geometry":null},{"type":"Feature","properties":{"province":"NL"},"geometry":null},{"type":"Feature","properties":{"province":"NU"},"geometry":null},{"type":"Feature","properties":{"province":"NU"},"geometry":null},{"type":"Feature","properties":{"province":"NU"},"geometry":null},{"type":"Feature","properties":{"province":"NU"},"geometry":null},{"type":"Feature","properties":{"province":"NL"},"geometry":null},{"type":"Feature","properties":{"province":"NL"},"geometry":null},{"type":"Feature","properties":{"province":"NL"},"geometry":null},{"type":"Feature","properties":{"province":"NL"},"geometry":null},{"type":"Feature","properties":{"province":"BC"},"geometry":null},{"type":"Feature","properties":{"province":"NL"},"geometry":null},{"type":"Feature","properties":{"province":"NU"},"geometry":null},{"type":"Feature","properties":{"province":"BC"},"geometry":null},{"type":"Feature","properties":{"province":"BC"},"geometry":null},{"type":"Feature","properties":{"province":"BC"},"geometry":null},{"type":"Feature","properties":{"province":"NL"},"geometry":null},{"type":"Feature","properties":{"province":"NL"},"geometry":null},{"type":"Feature","properties":{"province":"BC"},"geometry":null},{"type":"Feature","properties":{"province":"NU"},"geometry":null},{"type":"Feature","properties":{"province":"BC"},"geometry":null},{"type":"Feature","properties":{"province":"NL"},"geometry":null},{"type":"Feature","properties":{"province":"BC"},"geometry":null},{"type":"Feature","properties":{"province":"BC"},"geometry":null},{"type":"Feature","properties":{"province":"BC"},"geometry":null},{"type":"Feature","properties":{"province":"NU"},"geometry":null},{"type":"Feature","properties":{"province":"BC"},"geometry":null},{"type":"Feature","properties":{"province":"NL"},"geometry":null},{"type":"Feature","properties":{"province":"BC"},"geometry":null},{"type":"Feature","properties":{"province":"BC"},"geometry":null},{"type":"Feature","properties":{"province":"NU"},"geometry":null},{"type":"Feature","properties":{"province":"BC"},"geometry":null},{"type":"Feature","properties":{"province":"BC"},"geometry":null},{"type":"Feature","properties":{"province":"NL"},"geometry":null},{"type":"Feature","properties":{"province":"BC"},"geometry":null},{"type":"Feature","properties":{"province":"BC"},"geometry":null},{"type":"Feature","properties":{"province":"NL"},"geometry":null},{"type":"Feature","properties":{"province":"BC"},"geometry":null},{"type":"Feature","properties":{"province":"BC"},"geometry":null},{"type":"Feature","properties":{"province":"BC"},"geometry":null},{"type":"Feature","properties":{"province":"BC"},"geometry":null},{"type":"Feature","properties":{"province":"BC"},"geometry":null},{"type":"Feature","properties":{"province":"NL"},"geometry":null},{"type":"Feature","properties":{"province":"BC"},"geometry":null},{"type":"Feature","properties":{"province":"NU"},"geometry":null},{"type":"Feature","properties":{"province":"BC"},"geometry":null},{"type":"Feature","properties":{"province":"BC"},"geometry":null},{"type":"Feature","properties":{"province":"BC"},"geometry":null},{"type":"Feature","properties":{"province":"BC"},"geometry":null},{"type":"Feature","properties":{"province":"NU"},"geometry":null},{"type":"Feature","properties":{"province":"BC"},"geometry":null},{"type":"Feature","properties":{"province":"NU"},"geometry":null},{"type":"Feature","properties":{"province":"BC"},"geometry":null},{"type":"Feature","properties":{"province":"BC"},"geometry":null},{"type":"Feature","properties":{"province":"NL"},"geometry":null},{"type":"Feature","properties":{"province":"BC"},"geometry":null},{"type":"Feature","properties":{"province":"BC"},"geometry":null},{"type":"Feature","properties":{"province":"BC"},"geometry":null},{"type":"Feature","properties":{"province":"BC"},"geometry":null},{"type":"Feature","properties":{"province":"BC"},"geometry":null},{"type":"Feature","properties":{"province":"BC"},"geometry":null},{"type":"Feature","properties":{"province":"BC"},"geometry":null},{"type":"Feature","properties":{"province":"BC"},"geometry":null},{"type":"Feature","properties":{"province":"NL"},"geometry":null},{"type":"Feature","properties":{"province":"NL"},"geometry":null},{"type":"Feature","properties":{"province":"BC"},"geometry":null},{"type":"Feature","properties":{"province":"NU"},"geometry":null},{"type":"Feature","properties":{"province":"NU"},"geometry":null},{"type":"Feature","properties":{"province":"BC"},"geometry":null},{"type":"Feature","properties":{"province":"NU"},"geometry":null},{"type":"Feature","properties":{"province":"BC"},"geometry":null},{"type":"Feature","properties":{"province":"BC"},"geometry":null},{"type":"Feature","properties":{"province":"BC"},"geometry":null},{"type":"Feature","properties":{"province":"BC"},"geometry":null},{"type":"Feature","properties":{"province":"ON"},"geometry":null},{"type":"Feature","properties":{"province":"NL"},"geometry":null},{"type":"Feature","properties":{"province":"NU"},"geometry":null},{"type":"Feature","properties":{"province":"BC"},"geometry":null},{"type":"Feature","properties":{"province":"NU"},"geometry":null},{"type":"Feature","properties":{"province":"NU"},"geometry":null},{"type":"Feature","properties":{"province":"BC"},"geometry":null},{"type":"Feature","properties":{"province":"NU"},"geometry":null},{"type":"Feature","properties":{"province":"NL"},"geometry":null},{"type":"Feature","properties":{"province":"BC"},"geometry":null},{"type":"Feature","properties":{"province":"BC"},"geometry":null},{"type":"Feature","properties":{"province":"NU"},"geometry":null},{"type":"Feature","properties":{"province":"BC"},"geometry":null},{"type":"Feature","properties":{"province":"NL"},"geometry":null},{"type":"Feature","properties":{"province":"BC"},"geometry":null},{"type":"Feature","properties":{"province":"BC"},"geometry":null},{"type":"Feature","properties":{"province":"BC"},"geometry":null},{"type":"Feature","properties":{"province":"QC"},"geometry":null},{"type":"Feature","properties":{"province":"QC"},"geometry":null},{"type":"Feature","properties":{"province":"QC"},"geometry":null},{"type":"Feature","properties":{"province":"NL"},"geometry":null},{"type":"Feature","properties":{"province":"QC"},"geometry":null},{"type":"Feature","properties":{"province":"BC"},"geometry":null},{"type":"Feature","properties":{"province":"BC"},"geometry":null},{"type":"Feature","properties":{"province":"BC"},"geometry":null},{"type":"Feature","properties":{"province":"BC"},"geometry":null},{"type":"Feature","properties":{"province":"BC"},"geometry":null},{"type":"Feature","properties":{"province":"NL"},"geometry":null},{"type":"Feature","properties":{"province":"BC"},"geometry":null},{"type":"Feature","properties":{"province":"BC"},"geometry":null},{"type":"Feature","properties":{"province":"QC"},"geometry":null},{"type":"Feature","properties":{"province":"BC"},"geometry":null},{"type":"Feature","properties":{"province":"NL"},"geometry":null},{"type":"Feature","properties":{"province":"QC"},"geometry":null},{"type":"Feature","properties":{"province":"QC"},"geometry":null},{"type":"Feature","properties":{"province":"BC"},"geometry":null},{"type":"Feature","properties":{"province":"QC"},"geometry":null},{"type":"Feature","properties":{"province":"BC"},"geometry":null},{"type":"Feature","properties":{"province":"BC"},"geometry":null},{"type":"Feature","properties":{"province":"BC"},"geometry":null},{"type":"Feature","properties":{"province":"QC"},"geometry":null},{"type":"Feature","properties":{"province":"BC"},"geometry":null},{"type":"Feature","properties":{"province":"BC"},"geometry":null},{"type":"Feature","properties":{"province":"BC"},"geometry":null},{"type":"Feature","properties":{"province":"BC"},"geometry":null},{"type":"Feature","properties":{"province":"QC"},"geometry":null},{"type":"Feature","properties":{"province":"BC"},"geometry":null},{"type":"Feature","properties":{"province":"BC"},"geometry":null},{"type":"Feature","properties":{"province":"BC"},"geometry":null},{"type":"Feature","properties":{"province":"BC"},"geometry":null},{"type":"Feature","properties":{"province":"QC"},"geometry":null},{"type":"Feature","properties":{"province":"NL"},"geometry":null},{"type":"Feature","properties":{"province":"NL"},"geometry":null},{"type":"Feature","properties":{"province":"QC"},"geometry":null},{"type":"Feature","properties":{"province":"QC"},"geometry":null},{"type":"Feature","properties":{"province":"BC"},"geometry":null},{"type":"Feature","properties":{"province":"BC"},"geometry":null},{"type":"Feature","properties":{"province":"QC"},"geometry":null},{"type":"Feature","properties":{"province":"BC"},"geometry":null},{"type":"Feature","properties":{"province":"BC"},"geometry":null},{"type":"Feature","properties":{"province":"BC"},"geometry":null},{"type":"Feature","properties":{"province":"NL"},"geometry":null},{"type":"Feature","properties":{"province":"BC"},"geometry":null},{"type":"Feature","properties":{"province":"NL"},"geometry":null},{"type":"Feature","properties":{"province":"NL"},"geometry":null},{"type":"Feature","properties":{"province":"BC"},"geometry":null},{"type":"Feature","properties":{"province":"NL"},"geometry":null},{"type":"Feature","properties":{"province":"BC"},"geometry":null},{"type":"Feature","properties":{"province":"BC"},"geometry":null},{"type":"Feature","properties":{"province":"BC"},"geometry":null},{"type":"Feature","properties":{"province":"NL"},"geometry":null},{"type":"Feature","properties":{"province":"BC"},"geometry":null},{"type":"Feature","properties":{"province":"BC"},"geometry":null},{"type":"Feature","properties":{"province":"NL"},"geometry":null},{"type":"Feature","properties":{"province":"BC"},"geometry":null},{"type":"Feature","properties":{"province":"BC"},"geometry":null},{"type":"Feature","properties":{"province":"BC"},"geometry":null},{"type":"Feature","properties":{"province":"BC"},"geometry":null},{"type":"Feature","properties":{"province":"BC"},"geometry":null},{"type":"Feature","properties":{"province":"BC"},"geometry":null},{"type":"Feature","properties":{"province":"BC"},"geometry":null},{"type":"Feature","properties":{"province":"ON"},"geometry":null},{"type":"Feature","properties":{"province":"BC"},"geometry":null},{"type":"Feature","properties":{"province":"NL"},"geometry":null},{"type":"Feature","properties":{"province":"BC"},"geometry":null},{"type":"Feature","properties":{"province":"ON"},"geometry":null},{"type":"Feature","properties":{"province":"ON"},"geometry":null},{"type":"Feature","properties":{"province":"BC"},"geometry":null},{"type":"Feature","properties":{"province":"BC"},"geometry":null},{"type":"Feature","properties":{"province":"NL"},"geometry":null},{"type":"Feature","properties":{"province":"ON"},"geometry":null},{"type":"Feature","properties":{"province":"ON"},"geometry":null},{"type":"Feature","properties":{"province":"ON"},"geometry":null},{"type":"Feature","properties":{"province":"ON"},"geometry":null},{"type":"Feature","properties":{"province":"NL"},"geometry":null},{"type":"Feature","properties":{"province":"QC"},"geometry":null},{"type":"Feature","properties":{"province":"NB"},"geometry":null},{"type":"Feature","properties":{"province":"NB"},"geometry":null},{"type":"Feature","properties":{"province":"QC"},"geometry":null},{"type":"Feature","properties":{"province":"QC"},"geometry":null},{"type":"Feature","properties":{"province":"ON"},"geometry":null},{"type":"Feature","properties":{"province":"NL"},"geometry":null},{"type":"Feature","properties":{"province":"NL"},"geometry":null},{"type":"Feature","properties":{"province":"NL"},"geometry":null},{"type":"Feature","properties":{"province":"NL"},"geometry":null},{"type":"Feature","properties":{"province":"NL"},"geometry":null},{"type":"Feature","properties":{"province":"QC"},"geometry":null},{"type":"Feature","properties":{"province":"QC"},"geometry":null},{"type":"Feature","properties":{"province":"NL"},"geometry":null},{"type":"Feature","properties":{"province":"ON"},"geometry":null},{"type":"Feature","properties":{"province":"NL"},"geometry":null},{"type":"Feature","properties":{"province":"QC"},"geometry":null},{"type":"Feature","properties":{"province":"PE"},"geometry":null},{"type":"Feature","properties":{"province":"NS"},"geometry":null},{"type":"Feature","properties":{"province":"QC"},"geometry":null},{"type":"Feature","properties":{"province":"ON"},"geometry":null},{"type":"Feature","properties":{"province":"ON"},"geometry":null},{"type":"Feature","properties":{"province":"PE"},"geometry":null},{"type":"Feature","properties":{"province":"ON"},"geometry":null},{"type":"Feature","properties":{"province":"ON"},"geometry":null},{"type":"Feature","properties":{"province":"ON"},"geometry":null},{"type":"Feature","properties":{"province":"ON"},"geometry":null},{"type":"Feature","properties":{"province":"NS"},"geometry":null},{"type":"Feature","properties":{"province":"NS"},"geometry":null},{"type":"Feature","properties":{"province":"ON"},"geometry":null},{"type":"Feature","properties":{"province":"ON"},"geometry":null},{"type":"Feature","properties":{"province":"ON"},"geometry":null},{"type":"Feature","properties":{"province":"NS"},"geometry":null},{"type":"Feature","properties":{"province":"ON"},"geometry":null},{"type":"Feature","properties":{"province":"ON"},"geometry":null},{"type":"Feature","properties":{"province":"NS"},"geometry":null},{"type":"Feature","properties":{"province":"ON"},"geometry":null},{"type":"Feature","properties":{"province":"ON"},"geometry":null},{"type":"Feature","properties":{"province":"ON"},"geometry":null},{"type":"Feature","properties":{"province":"ON"},"geometry":null},{"type":"Feature","properties":{"province":"NB"},"geometry":null},{"type":"Feature","properties":{"province":"NB"},"geometry":null},{"type":"Feature","properties":{"province":"ON"},"geometry":null},{"type":"Feature","properties":{"province":"NB"},"geometry":null},{"type":"Feature","properties":{"province":"NS"},"geometry":null},{"type":"Feature","properties":{"province":"ON"},"geometry":null},{"type":"Feature","properties":{"province":"NS"},"geometry":null},{"type":"Feature","properties":{"province":"ON"},"geometry":null},{"type":"Feature","properties":{"province":"ON"},"geometry":null},{"type":"Feature","properties":{"province":"ON"},"geometry":null},{"type":"Feature","properties":{"province":"NS"},"geometry":null},{"type":"Feature","properties":{"province":"NS"},"geometry":null},{"type":"Feature","properties":{"province":"NS"},"geometry":null},{"type":"Feature","properties":{"province":"ON"},"geometry":null}]}